{
  "type": "FeatureCollection",
  "features": [
    {
      "type": "Feature",
      "properties": {
        "norad_id": 43647,
        "name": "BEIDOU-3 M16 (C35)",
        "group": "gnss",
        "lat": 13.981458068770406,
        "lon": -43.4816908974775,
        "alt_km": 21505.838897870093,
        "timestamp": "2025-12-21T07:34:34.764294+00:00",
        "meta_object_name": "BEIDOU-3 M16 (C35)",
        "meta_object_id": "2018-078A",
        "meta_epoch": "2025-12-20T18:04:14.060064",
        "meta_mean_motion": 1.86232385,
        "meta_eccentricity": 0.00073586,
        "meta_inclination": 54.2545,
        "meta_ra_of_asc_node": 306.2412,
        "meta_arg_of_pericenter": 20.0204,
        "meta_mean_anomaly": 340.0034,
        "meta_ephemeris_type": 0,
        "meta_classification_type": "U",
        "meta_norad_cat_id": 43647,
        "meta_element_set_no": 999,
        "meta_rev_at_epoch": 4883,
        "meta_bstar": 0,
        "meta_mean_motion_dot": -6.5e-07,
        "meta_mean_motion_ddot": 0,
        "tle_line1": "1 43647U 18078A   25354.75294051 -.00000065  00000+0  00000+0 0  9990",
        "tle_line2": "2 43647  54.2545 306.2412 0007358  20.0204 340.0034  1.86232385 48835"
      },
      "geometry": {
        "type": "Point",
        "coordinates": [
          -43.4816908974775,
          13.981458068770406
        ]
      }
    },
    {
      "type": "Feature",
      "properties": {
        "norad_id": 43648,
        "name": "BEIDOU-3 M15 (C34)",
        "group": "gnss",
        "lat": -49.429107677260134,
        "lon": -110.98669703285923,
        "alt_km": 21533.287085383556,
        "timestamp": "2025-12-21T07:34:34.764304+00:00",
        "meta_object_name": "BEIDOU-3 M15 (C34)",
        "meta_object_id": "2018-078B",
        "meta_epoch": "2025-12-19T06:30:41.361984",
        "meta_mean_motion": 1.86232317,
        "meta_eccentricity": 0.0003969,
        "meta_inclination": 54.2518,
        "meta_ra_of_asc_node": 306.2933,
        "meta_arg_of_pericenter": 20.1104,
        "meta_mean_anomaly": 339.8954,
        "meta_ephemeris_type": 0,
        "meta_classification_type": "U",
        "meta_norad_cat_id": 43648,
        "meta_element_set_no": 999,
        "meta_rev_at_epoch": 4882,
        "meta_bstar": 0,
        "meta_mean_motion_dot": -7.6e-07,
        "meta_mean_motion_ddot": 0,
        "tle_line1": "1 43648U 18078B   25353.27131206 -.00000076  00000+0  00000+0 0  9991",
        "tle_line2": "2 43648  54.2518 306.2933 0003969  20.1104 339.8954  1.86232317 48829"
      },
      "geometry": {
        "type": "Point",
        "coordinates": [
          -110.98669703285923,
          -49.429107677260134
        ]
      }
    },
    {
      "type": "Feature",
      "properties": {
        "norad_id": 43683,
        "name": "BEIDOU-3 G1 (C59)",
        "group": "gnss",
        "lat": -2.310012739124824,
        "lon": -16.241968136898286,
        "alt_km": 35793.787603095334,
        "timestamp": "2025-12-21T07:34:34.764315+00:00",
        "meta_object_name": "BEIDOU-3 G1 (C59)",
        "meta_object_id": "2018-085A",
        "meta_epoch": "2025-12-20T23:47:41.112384",
        "meta_mean_motion": 1.00268309,
        "meta_eccentricity": 0.00015754,
        "meta_inclination": 2.6274,
        "meta_ra_of_asc_node": 102.7261,
        "meta_arg_of_pericenter": 46.0407,
        "meta_mean_anomaly": 77.9856,
        "meta_ephemeris_type": 0,
        "meta_classification_type": "U",
        "meta_norad_cat_id": 43683,
        "meta_element_set_no": 999,
        "meta_rev_at_epoch": 2627,
        "meta_bstar": 0,
        "meta_mean_motion_dot": -2.57e-06,
        "meta_mean_motion_ddot": 0,
        "tle_line1": "1 43683U 18085A   25354.99144806 -.00000257  00000+0  00000+0 0  9999",
        "tle_line2": "2 43683   2.6274 102.7261 0001575  46.0407  77.9856  1.00268309 26273"
      },
      "geometry": {
        "type": "Point",
        "coordinates": [
          -16.241968136898286,
          -2.310012739124824
        ]
      }
    },
    {
      "type": "Feature",
      "properties": {
        "norad_id": 43687,
        "name": "COSMOS 2529 (757)",
        "group": "gnss",
        "lat": -11.294308822156026,
        "lon": -166.9205780316279,
        "alt_km": 19133.050373540755,
        "timestamp": "2025-12-21T07:34:34.764325+00:00",
        "meta_object_name": "COSMOS 2529 (757)",
        "meta_object_id": "2018-086A",
        "meta_epoch": "2025-12-18T12:23:46.661856",
        "meta_mean_motion": 2.13102105,
        "meta_eccentricity": 0.00070461,
        "meta_inclination": 64.2922,
        "meta_ra_of_asc_node": 198.6932,
        "meta_arg_of_pericenter": 253.6593,
        "meta_mean_anomaly": 106.345,
        "meta_ephemeris_type": 0,
        "meta_classification_type": "U",
        "meta_norad_cat_id": 43687,
        "meta_element_set_no": 999,
        "meta_rev_at_epoch": 5543,
        "meta_bstar": 0,
        "meta_mean_motion_dot": 1.09e-06,
        "meta_mean_motion_ddot": 0,
        "tle_line1": "1 43687U 18086A   25352.51651229  .00000109  00000+0  00000+0 0  9997",
        "tle_line2": "2 43687  64.2922 198.6932 0007046 253.6593 106.3450  2.13102105 55434"
      },
      "geometry": {
        "type": "Point",
        "coordinates": [
          -166.9205780316279,
          -11.294308822156026
        ]
      }
    },
    {
      "type": "Feature",
      "properties": {
        "norad_id": 43706,
        "name": "BEIDOU-3 M17 (C36)",
        "group": "gnss",
        "lat": -3.4199014512575405,
        "lon": 10.811480170926261,
        "alt_km": 21538.40685810827,
        "timestamp": "2025-12-21T07:34:34.764336+00:00",
        "meta_object_name": "BEIDOU-3 M17 (C36)",
        "meta_object_id": "2018-093A",
        "meta_epoch": "2025-12-20T12:04:20.840736",
        "meta_mean_motion": 1.86228485,
        "meta_eccentricity": 0.00060883,
        "meta_inclination": 54.1751,
        "meta_ra_of_asc_node": 188.3582,
        "meta_arg_of_pericenter": 307.8758,
        "meta_mean_anomaly": 51.559,
        "meta_ephemeris_type": 0,
        "meta_classification_type": "U",
        "meta_norad_cat_id": 43706,
        "meta_element_set_no": 999,
        "meta_rev_at_epoch": 4820,
        "meta_bstar": 0,
        "meta_mean_motion_dot": 9.7e-07,
        "meta_mean_motion_ddot": 0,
        "tle_line1": "1 43706U 18093A   25354.50301899  .00000097  00000+0  00000+0 0  9999",
        "tle_line2": "2 43706  54.1751 188.3582 0006088 307.8758  51.5590  1.86228485 48203"
      },
      "geometry": {
        "type": "Point",
        "coordinates": [
          10.811480170926261,
          -3.4199014512575405
        ]
      }
    },
    {
      "type": "Feature",
      "properties": {
        "norad_id": 43707,
        "name": "BEIDOU-3 M18 (C37)",
        "group": "gnss",
        "lat": -53.54950250803042,
        "lon": 110.19206646626559,
        "alt_km": 21530.36617365276,
        "timestamp": "2025-12-21T07:34:34.764348+00:00",
        "meta_object_name": "BEIDOU-3 M18 (C37)",
        "meta_object_id": "2018-093B",
        "meta_epoch": "2025-12-20T08:46:15.603168",
        "meta_mean_motion": 1.86226697,
        "meta_eccentricity": 0.0006223,
        "meta_inclination": 54.174,
        "meta_ra_of_asc_node": 188.3547,
        "meta_arg_of_pericenter": 354.092,
        "meta_mean_anomaly": 5.9566,
        "meta_ephemeris_type": 0,
        "meta_classification_type": "U",
        "meta_norad_cat_id": 43707,
        "meta_element_set_no": 999,
        "meta_rev_at_epoch": 4820,
        "meta_bstar": 0,
        "meta_mean_motion_dot": 9.7e-07,
        "meta_mean_motion_ddot": 0,
        "tle_line1": "1 43707U 18093B   25354.36545837  .00000097  00000+0  00000+0 0  9996",
        "tle_line2": "2 43707  54.1740 188.3547 0006223 354.0920   5.9566  1.86226697 48208"
      },
      "geometry": {
        "type": "Point",
        "coordinates": [
          110.19206646626559,
          -53.54950250803042
        ]
      }
    },
    {
      "type": "Feature",
      "properties": {
        "norad_id": 43873,
        "name": "GPS BIII-1  (PRN 04)",
        "group": "gnss",
        "lat": -28.689561273571584,
        "lon": -58.77848034355501,
        "alt_km": 20092.97100737895,
        "timestamp": "2025-12-21T07:34:34.764358+00:00",
        "meta_object_name": "GPS BIII-1  (PRN 04)",
        "meta_object_id": "2018-109A",
        "meta_epoch": "2025-12-20T14:49:36.231744",
        "meta_mean_motion": 2.00553966,
        "meta_eccentricity": 0.0037575,
        "meta_inclination": 55.571,
        "meta_ra_of_asc_node": 99.2363,
        "meta_arg_of_pericenter": 195.36,
        "meta_mean_anomaly": 236.122,
        "meta_ephemeris_type": 0,
        "meta_classification_type": "U",
        "meta_norad_cat_id": 43873,
        "meta_element_set_no": 999,
        "meta_rev_at_epoch": 5149,
        "meta_bstar": 0,
        "meta_mean_motion_dot": -1.2e-07,
        "meta_mean_motion_ddot": 0,
        "tle_line1": "1 43873U 18109A   25354.61778046 -.00000012  00000+0  00000+0 0  9994",
        "tle_line2": "2 43873  55.5710  99.2363 0037575 195.3600 236.1220  2.00553966 51494"
      },
      "geometry": {
        "type": "Point",
        "coordinates": [
          -58.77848034355501,
          -28.689561273571584
        ]
      }
    }
  ]
}